<?xml version="1.0" encoding="UTF-8"?>
<ndm xmlns:xsi="http://www.w3.org/2001/XMLSchema-instance" xsi:noNamespaceSchemaLocation="https://sanaregistry.org/r/ndmxml_unqualified/ndmxml-2.0.0-master-2.0.xsd">
<omm id="CCSDS_OMM_VERS" version="2.0">
<header><CREATION_DATE/><ORIGINATOR/></header><body><segment><metadata><OBJECT_NAME>ORBCOMM FM37</OBJECT_NAME><OBJECT_ID>2008-031E</OBJECT_ID><CENTER_NAME>EARTH</CENTER_NAME><REF_FRAME>TEME</REF_FRAME><TIME_SYSTEM>UTC</TIME_SYSTEM><MEAN_ELEMENT_THEORY>SGP4</MEAN_ELEMENT_THEORY></metadata><data><meanElements><EPOCH>2024-06-24T11:36:49.785984</EPOCH><MEAN_MOTION>14.76700347</MEAN_MOTION><ECCENTRICITY>.0006719</ECCENTRICITY><INCLINATION>48.4406</INCLINATION><RA_OF_ASC_NODE>240.4242</RA_OF_ASC_NODE><ARG_OF_PERICENTER>284.8508</ARG_OF_PERICENTER><MEAN_ANOMALY>200.9983</MEAN_ANOMALY></meanElements><tleParameters><EPHEMERIS_TYPE>0</EPHEMERIS_TYPE><CLASSIFICATION_TYPE>U</CLASSIFICATION_TYPE><NORAD_CAT_ID>33064</NORAD_CAT_ID><ELEMENT_SET_NO>999</ELEMENT_SET_NO><REV_AT_EPOCH>86144</REV_AT_EPOCH><BSTAR>.23081E-3</BSTAR><MEAN_MOTION_DOT>.1425E-4</MEAN_MOTION_DOT><MEAN_MOTION_DDOT>0</MEAN_MOTION_DDOT></tleParameters></data></segment></body></omm>
<omm id="CCSDS_OMM_VERS" version="2.0">
<header><CREATION_DATE/><ORIGINATOR/></header><body><segment><metadata><OBJECT_NAME>ORBCOMM FM40</OBJECT_NAME><OBJECT_ID>2008-031F</OBJECT_ID><CENTER_NAME>EARTH</CENTER_NAME><REF_FRAME>TEME</REF_FRAME><TIME_SYSTEM>UTC</TIME_SYSTEM><MEAN_ELEMENT_THEORY>SGP4</MEAN_ELEMENT_THEORY></metadata><data><meanElements><EPOCH>2024-06-24T12:13:33.156192</EPOCH><MEAN_MOTION>14.78081997</MEAN_MOTION><ECCENTRICITY>.0008081</ECCENTRICITY><INCLINATION>48.4412</INCLINATION><RA_OF_ASC_NODE>229.2323</RA_OF_ASC_NODE><ARG_OF_PERICENTER>293.9687</ARG_OF_PERICENTER><MEAN_ANOMALY>206.7626</MEAN_ANOMALY></meanElements><tleParameters><EPHEMERIS_TYPE>0</EPHEMERIS_TYPE><CLASSIFICATION_TYPE>U</CLASSIFICATION_TYPE><NORAD_CAT_ID>33065</NORAD_CAT_ID><ELEMENT_SET_NO>999</ELEMENT_SET_NO><REV_AT_EPOCH>86161</REV_AT_EPOCH><BSTAR>.28088E-3</BSTAR><MEAN_MOTION_DOT>.1843E-4</MEAN_MOTION_DOT><MEAN_MOTION_DDOT>0</MEAN_MOTION_DDOT></tleParameters></data></segment></body></omm>
<omm id="CCSDS_OMM_VERS" version="2.0">
<header><CREATION_DATE/><ORIGINATOR/></header><body><segment><metadata><OBJECT_NAME>VESSELSAT 1</OBJECT_NAME><OBJECT_ID>2011-058C</OBJECT_ID><CENTER_NAME>EARTH</CENTER_NAME><REF_FRAME>TEME</REF_FRAME><TIME_SYSTEM>UTC</TIME_SYSTEM><MEAN_ELEMENT_THEORY>SGP4</MEAN_ELEMENT_THEORY></metadata><data><meanElements><EPOCH>2024-06-24T02:52:26.147712</EPOCH><MEAN_MOTION>14.11167908</MEAN_MOTION><ECCENTRICITY>.0013659</ECCENTRICITY><INCLINATION>19.9617</INCLINATION><RA_OF_ASC_NODE>100.2593</RA_OF_ASC_NODE><ARG_OF_PERICENTER>207.7082</ARG_OF_PERICENTER><MEAN_ANOMALY>152.2595</MEAN_ANOMALY></meanElements><tleParameters><EPHEMERIS_TYPE>0</EPHEMERIS_TYPE><CLASSIFICATION_TYPE>U</CLASSIFICATION_TYPE><NORAD_CAT_ID>37840</NORAD_CAT_ID><ELEMENT_SET_NO>999</ELEMENT_SET_NO><REV_AT_EPOCH>65589</REV_AT_EPOCH><BSTAR>.56346E-4</BSTAR><MEAN_MOTION_DOT>.368E-5</MEAN_MOTION_DOT><MEAN_MOTION_DDOT>0</MEAN_MOTION_DDOT></tleParameters></data></segment></body></omm>
<omm id="CCSDS_OMM_VERS" version="2.0">
<header><CREATION_DATE/><ORIGINATOR/></header><body><segment><metadata><OBJECT_NAME>ORBCOMM FM109</OBJECT_NAME><OBJECT_ID>2014-040A</OBJECT_ID><CENTER_NAME>EARTH</CENTER_NAME><REF_FRAME>TEME</REF_FRAME><TIME_SYSTEM>UTC</TIME_SYSTEM><MEAN_ELEMENT_THEORY>SGP4</MEAN_ELEMENT_THEORY></metadata><data><meanElements><EPOCH>2024-06-24T03:48:11.827008</EPOCH><MEAN_MOTION>14.56761627</MEAN_MOTION><ECCENTRICITY>.0001001</ECCENTRICITY><INCLINATION>47.0040</INCLINATION><RA_OF_ASC_NODE>265.5303</RA_OF_ASC_NODE><ARG_OF_PERICENTER>140.8141</ARG_OF_PERICENTER><MEAN_ANOMALY>219.2816</MEAN_ANOMALY></meanElements><tleParameters><EPHEMERIS_TYPE>0</EPHEMERIS_TYPE><CLASSIFICATION_TYPE>U</CLASSIFICATION_TYPE><NORAD_CAT_ID>40086</NORAD_CAT_ID><ELEMENT_SET_NO>999</ELEMENT_SET_NO><REV_AT_EPOCH>52895</REV_AT_EPOCH><BSTAR>.24961E-3</BSTAR><MEAN_MOTION_DOT>.959E-5</MEAN_MOTION_DOT><MEAN_MOTION_DDOT>0</MEAN_MOTION_DDOT></tleParameters></data></segment></body></omm>
<omm id="CCSDS_OMM_VERS" version="2.0">
<header><CREATION_DATE/><ORIGINATOR/></header><body><segment><metadata><OBJECT_NAME>ORBCOMM FM107</OBJECT_NAME><OBJECT_ID>2014-040B</OBJECT_ID><CENTER_NAME>EARTH</CENTER_NAME><REF_FRAME>TEME</REF_FRAME><TIME_SYSTEM>UTC</TIME_SYSTEM><MEAN_ELEMENT_THEORY>SGP4</MEAN_ELEMENT_THEORY></metadata><data><meanElements><EPOCH>2024-06-23T15:26:57.010560</EPOCH><MEAN_MOTION>14.56771320</MEAN_MOTION><ECCENTRICITY>.000034</ECCENTRICITY><INCLINATION>47.0059</INCLINATION><RA_OF_ASC_NODE>268.9254</RA_OF_ASC_NODE><ARG_OF_PERICENTER>30.6442</ARG_OF_PERICENTER><MEAN_ANOMALY>329.4463</MEAN_ANOMALY></meanElements><tleParameters><EPHEMERIS_TYPE>0</EPHEMERIS_TYPE><CLASSIFICATION_TYPE>U</CLASSIFICATION_TYPE><NORAD_CAT_ID>40087</NORAD_CAT_ID><ELEMENT_SET_NO>999</ELEMENT_SET_NO><REV_AT_EPOCH>52883</REV_AT_EPOCH><BSTAR>.26494E-3</BSTAR><MEAN_MOTION_DOT>.1029E-4</MEAN_MOTION_DOT><MEAN_MOTION_DDOT>0</MEAN_MOTION_DDOT></tleParameters></data></segment></body></omm>
<omm id="CCSDS_OMM_VERS" version="2.0">
<header><CREATION_DATE/><ORIGINATOR/></header><body><segment><metadata><OBJECT_NAME>ORBCOMM FM106</OBJECT_NAME><OBJECT_ID>2014-040C</OBJECT_ID><CENTER_NAME>EARTH</CENTER_NAME><REF_FRAME>TEME</REF_FRAME><TIME_SYSTEM>UTC</TIME_SYSTEM><MEAN_ELEMENT_THEORY>SGP4</MEAN_ELEMENT_THEORY></metadata><data><meanElements><EPOCH>2024-06-23T20:47:25.683936</EPOCH><MEAN_MOTION>14.67209612</MEAN_MOTION><ECCENTRICITY>.0017738</ECCENTRICITY><INCLINATION>47.0607</INCLINATION><RA_OF_ASC_NODE>117.7199</RA_OF_ASC_NODE><ARG_OF_PERICENTER>205.1530</ARG_OF_PERICENTER><MEAN_ANOMALY>154.8497</MEAN_ANOMALY></meanElements><tleParameters><EPHEMERIS_TYPE>0</EPHEMERIS_TYPE><CLASSIFICATION_TYPE>U</CLASSIFICATION_TYPE><NORAD_CAT_ID>40088</NORAD_CAT_ID><ELEMENT_SET_NO>999</ELEMENT_SET_NO><REV_AT_EPOCH>53081</REV_AT_EPOCH><BSTAR>.25104E-3</BSTAR><MEAN_MOTION_DOT>.1245E-4</MEAN_MOTION_DOT><MEAN_MOTION_DDOT>0</MEAN_MOTION_DDOT></tleParameters></data></segment></body></omm>
<omm id="CCSDS_OMM_VERS" version="2.0">
<header><CREATION_DATE/><ORIGINATOR/></header><body><segment><metadata><OBJECT_NAME>ORBCOMM FM111</OBJECT_NAME><OBJECT_ID>2014-040D</OBJECT_ID><CENTER_NAME>EARTH</CENTER_NAME><REF_FRAME>TEME</REF_FRAME><TIME_SYSTEM>UTC</TIME_SYSTEM><MEAN_ELEMENT_THEORY>SGP4</MEAN_ELEMENT_THEORY></metadata><data><meanElements><EPOCH>2024-06-23T23:46:57.312768</EPOCH><MEAN_MOTION>14.82079259</MEAN_MOTION><ECCENTRICITY>.0033509</ECCENTRICITY><INCLINATION>47.0064</INCLINATION><RA_OF_ASC_NODE>12.8549</RA_OF_ASC_NODE><ARG_OF_PERICENTER>280.5859</ARG_OF_PERICENTER><MEAN_ANOMALY>79.1263</MEAN_ANOMALY></meanElements><tleParameters><EPHEMERIS_TYPE>0</EPHEMERIS_TYPE><CLASSIFICATION_TYPE>U</CLASSIFICATION_TYPE><NORAD_CAT_ID>40089</NORAD_CAT_ID><ELEMENT_SET_NO>999</ELEMENT_SET_NO><REV_AT_EPOCH>53701</REV_AT_EPOCH><BSTAR>.23504E-3</BSTAR><MEAN_MOTION_DOT>.1693E-4</MEAN_MOTION_DOT><MEAN_MOTION_DDOT>0</MEAN_MOTION_DDOT></tleParameters></data></segment></body></omm>
<omm id="CCSDS_OMM_VERS" version="2.0">
<header><CREATION_DATE/><ORIGINATOR/></header><body><segment><metadata><OBJECT_NAME>ORBCOMM FM104</OBJECT_NAME><OBJECT_ID>2014-040E</OBJECT_ID><CENTER_NAME>EARTH</CENTER_NAME><REF_FRAME>TEME</REF_FRAME><TIME_SYSTEM>UTC</TIME_SYSTEM><MEAN_ELEMENT_THEORY>SGP4</MEAN_ELEMENT_THEORY></metadata><data><meanElements><EPOCH>2024-06-24T09:58:28.991712</EPOCH><MEAN_MOTION>14.55247408</MEAN_MOTION><ECCENTRICITY>.001662</ECCENTRICITY><INCLINATION>47.0063</INCLINATION><RA_OF_ASC_NODE>294.7077</RA_OF_ASC_NODE><ARG_OF_PERICENTER>7.8074</ARG_OF_PERICENTER><MEAN_ANOMALY>352.3066</MEAN_ANOMALY></meanElements><tleParameters><EPHEMERIS_TYPE>0</EPHEMERIS_TYPE><CLASSIFICATION_TYPE>U</CLASSIFICATION_TYPE><NORAD_CAT_ID>40090</NORAD_CAT_ID><ELEMENT_SET_NO>999</ELEMENT_SET_NO><REV_AT_EPOCH>52858</REV_AT_EPOCH><BSTAR>.21328E-3</BSTAR><MEAN_MOTION_DOT>.765E-5</MEAN_MOTION_DOT><MEAN_MOTION_DDOT>0</MEAN_MOTION_DDOT></tleParameters></data></segment></body></omm>

</ndm>
